[
    {
        "Altitude(m)": 554417.1167262044,
        "Argument of Periapsis(deg)": 0.0,
        "Eccentricity": 0.0,
        "Inclination(deg)": 53.0,
        "Latitude(deg)": 25.652249484295126,
        "Longitude(deg)": 163.93636949317911,
        "Mean Anomaly(deg)": 147.27270000000001,
        "RAAN(deg)": 105.0,
        "Satellite Name": "Starlink Shell 1 471",
        "Satellite Number": 471,
        "Semi-Major Axis(m)": 6931778.249405717,
        "Time(s)": 0
    },
    {
        "Altitude(m)": 554357.0665707302,
        "Argument of Periapsis(deg)": 0.00034857847951123687,
        "Eccentricity": 0.0,
        "Inclination(deg)": 53.0,
        "Latitude(deg)": 25.182023218833002,
        "Longitude(deg)": 164.3563639803862,
        "Mean Anomaly(deg)": 147.89953120355673,
        "RAAN(deg)": 104.99948122992254,
        "Satellite Name": "Starlink Shell 1 471",
        "Satellite Number": 471,
        "Semi-Major Axis(m)": 6931778.249405717,
        "Time(s)": 10
    },
    {
        "Altitude(m)": 554298.6132401457,
        "Argument of Periapsis(deg)": 0.0006971569590224737,
        "Eccentricity": 0.0,
        "Inclination(deg)": 53.0,
        "Latitude(deg)": 24.710341083819905,
        "Longitude(deg)": 164.7728285940666,
        "Mean Anomaly(deg)": 148.52636240711345,
        "RAAN(deg)": 104.99896245984507,
        "Satellite Name": "Starlink Shell 1 471",
        "Satellite Number": 471,
        "Semi-Major Axis(m)": 6931778.249405717,
        "Time(s)": 20
    },
    {
        "Altitude(m)": 554241.8050625963,
        "Argument of Periapsis(deg)": 0.0010457354385337105,
        "Eccentricity": 0.0,
        "Inclination(deg)": 53.0,
        "Latitude(deg)": 24.237244272254156,
        "Longitude(deg)": 165.18585412593873,
        "Mean Anomaly(deg)": 149.15319361067012,
        "RAAN(deg)": 104.9984436897676,
        "Satellite Name": "Starlink Shell 1 471",
        "Satellite Number": 471,
        "Semi-Major Axis(m)": 6931778.249405717,
        "Time(s)": 30
    },
    {
        "Altitude(m)": 554186.6897143095,
        "Argument of Periapsis(deg)": 0.0013943139180449475,
        "Eccentricity": 0.0,
        "Inclination(deg)": 53.0,
        "Latitude(deg)": 23.762773142443226,
        "Longitude(deg)": 165.59553061036405,
        "Mean Anomaly(deg)": 149.7800248142268,
        "RAAN(deg)": 104.9979249196901,
        "Satellite Name": "Starlink Shell 1 471",
        "Satellite Number": 471,
        "Semi-Major Axis(m)": 6931778.249405717,
        "Time(s)": 40
    },
    {
        "Altitude(m)": 554133.3141937624,
        "Argument of Periapsis(deg)": 0.0017428923975561844,
        "Eccentricity": 0.0,
        "Inclination(deg)": 53.0,
        "Latitude(deg)": 23.286967244077633,
        "Longitude(deg)": 166.00194633201338,
        "Mean Anomaly(deg)": 150.40685601778355,
        "RAAN(deg)": 104.99740614961264,
        "Satellite Name": "Starlink Shell 1 471",
        "Satellite Number": 471,
        "Semi-Major Axis(m)": 6931778.249405717,
        "Time(s)": 50
    },
    {
        "Altitude(m)": 554081.7247961855,
        "Argument of Periapsis(deg)": 0.002091470877067421,
        "Eccentricity": 0.0,
        "Inclination(deg)": 53.0,
        "Latitude(deg)": 22.809865343771058,
        "Longitude(deg)": 166.40518834778018,
        "Mean Anomaly(deg)": 151.0336872213403,
        "RAAN(deg)": 104.99688737953517,
        "Satellite Name": "Starlink Shell 1 471",
        "Satellite Number": 471,
        "Semi-Major Axis(m)": 6931778.249405717,
        "Time(s)": 60
    },
    {
        "Altitude(m)": 554031.9670883445,
        "Argument of Periapsis(deg)": 0.0024400493565786582,
        "Eccentricity": 0.0,
        "Inclination(deg)": 53.0,
        "Latitude(deg)": 22.33150545006936,
        "Longitude(deg)": 166.80534300993497,
        "Mean Anomaly(deg)": 151.66051842489696,
        "RAAN(deg)": 104.9963686094577,
        "Satellite Name": "Starlink Shell 1 471",
        "Satellite Number": 471,
        "Semi-Major Axis(m)": 6931778.249405717,
        "Time(s)": 70
    },
    {
        "Altitude(m)": 553984.0858836519,
        "Argument of Periapsis(deg)": 0.002788627836089895,
        "Eccentricity": 0.0,
        "Inclination(deg)": 53.0,
        "Latitude(deg)": 21.851924837936732,
        "Longitude(deg)": 167.2024949775192,
        "Mean Anomaly(deg)": 152.2873496284537,
        "RAAN(deg)": 104.99584983938023,
        "Satellite Name": "Starlink Shell 1 471",
        "Satellite Number": 471,
        "Semi-Major Axis(m)": 6931778.249405717,
        "Time(s)": 80
    },
    {
        "Altitude(m)": 553938.1252176526,
        "Argument of Periapsis(deg)": 0.0031372063156011316,
        "Eccentricity": 0.0,
        "Inclination(deg)": 53.0,
        "Latitude(deg)": 21.371160072715803,
        "Longitude(deg)": 167.5967277416128,
        "Mean Anomaly(deg)": 152.91418083201043,
        "RAAN(deg)": 104.99533106930275,
        "Satellite Name": "Starlink Shell 1 471",
        "Satellite Number": 471,
        "Semi-Major Axis(m)": 6931778.249405717,
        "Time(s)": 90
    },
    {
        "Altitude(m)": 553894.1283238148,
        "Argument of Periapsis(deg)": 0.0034857847951123688,
        "Eccentricity": 0.0,
        "Inclination(deg)": 53.0,
        "Latitude(deg)": 20.889247033570978,
        "Longitude(deg)": 167.98812415149416,
        "Mean Anomaly(deg)": 153.54101203556715,
        "RAAN(deg)": 104.99481229922527,
        "Satellite Name": "Starlink Shell 1 471",
        "Satellite Number": 471,
        "Semi-Major Axis(m)": 6931778.249405717,
        "Time(s)": 100
    },
    {
        "Altitude(m)": 553852.1376097267,
        "Argument of Periapsis(deg)": 0.003834363274623606,
        "Eccentricity": 0.0,
        "Inclination(deg)": 53.0,
        "Latitude(deg)": 20.40622093642313,
        "Longitude(deg)": 168.3767654287206,
        "Mean Anomaly(deg)": 154.1678432391239,
        "RAAN(deg)": 104.99429352914781,
        "Satellite Name": "Starlink Shell 1 471",
        "Satellite Number": 471,
        "Semi-Major Axis(m)": 6931778.249405717,
        "Time(s)": 110
    },
    {
        "Altitude(m)": 553812.1946336562,
        "Argument of Periapsis(deg)": 0.004182941754134842,
        "Eccentricity": 0.0,
        "Inclination(deg)": 53.0,
        "Latitude(deg)": 19.922116356379362,
        "Longitude(deg)": 168.76273169478435,
        "Mean Anomaly(deg)": 154.79467444268056,
        "RAAN(deg)": 104.99377475907033,
        "Satellite Name": "Starlink Shell 1 471",
        "Satellite Number": 471,
        "Semi-Major Axis(m)": 6931778.249405717,
        "Time(s)": 120
    },
    {
        "Altitude(m)": 553774.340081502,
        "Argument of Periapsis(deg)": 0.004531520233646079,
        "Eccentricity": 0.0,
        "Inclination(deg)": 53.0,
        "Latitude(deg)": 19.436967249666747,
        "Longitude(deg)": 169.14610249938917,
        "Mean Anomaly(deg)": 155.42150564623728,
        "RAAN(deg)": 104.99325598899287,
        "Satellite Name": "Starlink Shell 1 471",
        "Satellite Number": 471,
        "Semi-Major Axis(m)": 6931778.249405717,
        "Time(s)": 130
    },
    {
        "Altitude(m)": 553738.6137441512,
        "Argument of Periapsis(deg)": 0.0048800987131573164,
        "Eccentricity": 0.0,
        "Inclination(deg)": 53.0,
        "Latitude(deg)": 18.950806975083292,
        "Longitude(deg)": 169.52695583639482,
        "Mean Anomaly(deg)": 156.04833684979397,
        "RAAN(deg)": 104.9927372189154,
        "Satellite Name": "Starlink Shell 1 471",
        "Satellite Number": 471,
        "Semi-Major Axis(m)": 6931778.249405717,
        "Time(s)": 140
    },
    {
        "Altitude(m)": 553705.0544952622,
        "Argument of Periapsis(deg)": 0.005228677192668553,
        "Eccentricity": 0.0,
        "Inclination(deg)": 53.0,
        "Latitude(deg)": 18.463668314969517,
        "Longitude(deg)": 169.90536867310735,
        "Mean Anomaly(deg)": 156.67516805335072,
        "RAAN(deg)": 104.99221844883792,
        "Satellite Name": "Starlink Shell 1 471",
        "Satellite Number": 471,
        "Semi-Major Axis(m)": 6931778.249405717,
        "Time(s)": 150
    },
    {
        "Altitude(m)": 553673.7002694615,
        "Argument of Periapsis(deg)": 0.00557725567217979,
        "Eccentricity": 0.0,
        "Inclination(deg)": 53.0,
        "Latitude(deg)": 17.975583495713412,
        "Longitude(deg)": 170.281417479977,
        "Mean Anomaly(deg)": 157.30199925690744,
        "RAAN(deg)": 104.99169967876044,
        "Satellite Name": "Starlink Shell 1 471",
        "Satellite Number": 471,
        "Semi-Major Axis(m)": 6931778.249405717,
        "Time(s)": 160
    },
    {
        "Altitude(m)": 553644.5880410032,
        "Argument of Periapsis(deg)": 0.0059258341516910265,
        "Eccentricity": 0.0,
        "Inclination(deg)": 53.0,
        "Latitude(deg)": 17.48658420780249,
        "Longitude(deg)": 170.65517724777044,
        "Mean Anomaly(deg)": 157.92883046046416,
        "RAAN(deg)": 104.99118090868298,
        "Satellite Name": "Starlink Shell 1 471",
        "Satellite Number": 471,
        "Semi-Major Axis(m)": 6931778.249405717,
        "Time(s)": 170
    },
    {
        "Altitude(m)": 553617.7538028575,
        "Argument of Periapsis(deg)": 0.006274412631202263,
        "Eccentricity": 0.0,
        "Inclination(deg)": 53.0,
        "Latitude(deg)": 16.996701625428443,
        "Longitude(deg)": 171.0267220179113,
        "Mean Anomaly(deg)": 158.5556616640209,
        "RAAN(deg)": 104.9906621386055,
        "Satellite Name": "Starlink Shell 1 471",
        "Satellite Number": 471,
        "Semi-Major Axis(m)": 6931778.249405717,
        "Time(s)": 180
    }
]